[{"OBJECT_NAME":"EUTELSAT 8 WEST B","OBJECT_ID":"2015-039B","EPOCH":"2026-03-04T03:43:46.648128","MEAN_MOTION":1.00271641,"ECCENTRICITY":0.0003806,"INCLINATION":0.0667,"RA_OF_ASC_NODE":356.5476,"ARG_OF_PERICENTER":347.0412,"MEAN_ANOMALY":226.2577,"EPHEMERIS_TYPE":0,"CLASSIFICATION_TYPE":"U","NORAD_CAT_ID":40875,"ELEMENT_SET_NO":999,"REV_AT_EPOCH":3860,"BSTAR":0,"MEAN_MOTION_DOT":-7.8e-7,"MEAN_MOTION_DDOT":0},{"OBJECT_NAME":"GSAT-6","OBJECT_ID":"2015-041A","EPOCH":"2026-03-04T02:26:54.019104","MEAN_MOTION":1.00266028,"ECCENTRICITY":0.0002704,"INCLINATION":1.6468,"RA_OF_ASC_NODE":83.975,"ARG_OF_PERICENTER":262.7723,"MEAN_ANOMALY":294.2843,"EPHEMERIS_TYPE":0,"CLASSIFICATION_TYPE":"U","NORAD_CAT_ID":40880,"ELEMENT_SET_NO":999,"REV_AT_EPOCH":3854,"BSTAR":0,"MEAN_MOTION_DOT":-1.7e-6,"MEAN_MOTION_DDOT":0},{"OBJECT_NAME":"INMARSAT 5-F3","OBJECT_ID":"2015-042A","EPOCH":"2026-03-03T11:18:38.838240","MEAN_MOTION":1.00269188,"ECCENTRICITY":0.00013747,"INCLINATION":0.0203,"RA_OF_ASC_NODE":127.3947,"ARG_OF_PERICENTER":263.8816,"MEAN_ANOMALY":119.2231,"EPHEMERIS_TYPE":0,"CLASSIFICATION_TYPE":"U","NORAD_CAT_ID":40882,"ELEMENT_SET_NO":999,"REV_AT_EPOCH":3851,"BSTAR":0,"MEAN_MOTION_DOT":3.5e-7,"MEAN_MOTION_DDOT":0},{"OBJECT_NAME":"TJS-1","OBJECT_ID":"2015-046A","EPOCH":"2026-03-04T04:34:38.682336","MEAN_MOTION":1.00271201,"ECCENTRICITY":0.0004337,"INCLINATION":0.053,"RA_OF_ASC_NODE":85.5471,"ARG_OF_PERICENTER":293.6908,"MEAN_ANOMALY":6.3978,"EPHEMERIS_TYPE":0,"CLASSIFICATION_TYPE":"U","NORAD_CAT_ID":40892,"ELEMENT_SET_NO":999,"REV_AT_EPOCH":3851,"BSTAR":0,"MEAN_MOTION_DOT":-1.68e-6,"MEAN_MOTION_DDOT":0},{"OBJECT_NAME":"EXPRESS-AM8","OBJECT_ID":"2015-048A","EPOCH":"2026-03-04T03:42:01.814688","MEAN_MOTION":1.00270424,"ECCENTRICITY":3.01e-5,"INCLINATION":0.0307,"RA_OF_ASC_NODE":258.4062,"ARG_OF_PERICENTER":359.1654,"MEAN_ANOMALY":305.8313,"EPHEMERIS_TYPE":0,"CLASSIFICATION_TYPE":"U","NORAD_CAT_ID":40895,"ELEMENT_SET_NO":999,"REV_AT_EPOCH":3829,"BSTAR":0,"MEAN_MOTION_DOT":-1.24e-6,"MEAN_MOTION_DDOT":0},{"OBJECT_NAME":"COSMOS 1700 DEB","OBJECT_ID":"1985-102G","EPOCH":"2026-03-03T17:48:46.790208","MEAN_MOTION":1.00215716,"ECCENTRICITY":0.0021511,"INCLINATION":9.8673,"RA_OF_ASC_NODE":319.4364,"ARG_OF_PERICENTER":119.4303,"MEAN_ANOMALY":55.7486,"EPHEMERIS_TYPE":0,"CLASSIFICATION_TYPE":"U","NORAD_CAT_ID":40924,"ELEMENT_SET_NO":999,"REV_AT_EPOCH":6637,"BSTAR":0,"MEAN_MOTION_DOT":-1.7e-7,"MEAN_MOTION_DDOT":0},{"OBJECT_NAME":"SKY MUSTER 1 (NBN1A)","OBJECT_ID":"2015-054A","EPOCH":"2026-03-03T23:17:51.072864","MEAN_MOTION":1.00268073,"ECCENTRICITY":0.0001847,"INCLINATION":0.0191,"RA_OF_ASC_NODE":163.9226,"ARG_OF_PERICENTER":178.5776,"MEAN_ANOMALY":308.931,"EPHEMERIS_TYPE":0,"CLASSIFICATION_TYPE":"U","NORAD_CAT_ID":40940,"ELEMENT_SET_NO":999,"REV_AT_EPOCH":3820,"BSTAR":0,"MEAN_MOTION_DOT":0,"MEAN_MOTION_DDOT":0},{"OBJECT_NAME":"ARSAT 2","OBJECT_ID":"2015-054B","EPOCH":"2026-03-04T04:19:38.619840","MEAN_MOTION":1.00268537,"ECCENTRICITY":0.0001996,"INCLINATION":0.0212,"RA_OF_ASC_NODE":120.756,"ARG_OF_PERICENTER":219.9011,"MEAN_ANOMALY":165.1963,"EPHEMERIS_TYPE":0,"CLASSIFICATION_TYPE":"U","NORAD_CAT_ID":40941,"ELEMENT_SET_NO":999,"REV_AT_EPOCH":3825,"BSTAR":0,"MEAN_MOTION_DOT":0,"MEAN_MOTION_DDOT":0},{"OBJECT_NAME":"MORELOS 3","OBJECT_ID":"2015-056A","EPOCH":"2026-03-04T03:13:49.517760","MEAN_MOTION":1.00267407,"ECCENTRICITY":0.0002974,"INCLINATION":3.1085,"RA_OF_ASC_NODE":12.0896,"ARG_OF_PERICENTER":359.2942,"MEAN_ANOMALY":85.8464,"EPHEMERIS_TYPE":0,"CLASSIFICATION_TYPE":"U","NORAD_CAT_ID":40946,"ELEMENT_SET_NO":999,"REV_AT_EPOCH":3823,"BSTAR":0,"MEAN_MOTION_DOT":-5.3e-7,"MEAN_MOTION_DDOT":0},{"OBJECT_NAME":"APSTAR-9","OBJECT_ID":"2015-059A","EPOCH":"2026-03-03T21:35:45.859776","MEAN_MOTION":1.00271384,"ECCENTRICITY":0.0002006,"INCLINATION":0.0101,"RA_OF_ASC_NODE":341.1458,"ARG_OF_PERICENTER":278.1185,"MEAN_ANOMALY":8.3386,"EPHEMERIS_TYPE":0,"CLASSIFICATION_TYPE":"U","NORAD_CAT_ID":40982,"ELEMENT_SET_NO":999,"REV_AT_EPOCH":3806,"BSTAR":0,"MEAN_MOTION_DOT":-2.79e-6,"MEAN_MOTION_DDOT":0},{"OBJECT_NAME":"TURKSAT 4B","OBJECT_ID":"2015-060A","EPOCH":"2026-03-04T02:17:39.903936","MEAN_MOTION":1.00269629,"ECCENTRICITY":0.0002284,"INCLINATION":0.0227,"RA_OF_ASC_NODE":157.9293,"ARG_OF_PERICENTER":187.8371,"MEAN_ANOMALY":260.4896,"EPHEMERIS_TYPE":0,"CLASSIFICATION_TYPE":"U","NORAD_CAT_ID":40984,"ELEMENT_SET_NO":999,"REV_AT_EPOCH":3804,"BSTAR":0,"MEAN_MOTION_DOT":0,"MEAN_MOTION_DDOT":0},{"OBJECT_NAME":"ZHONGXING-2C","OBJECT_ID":"2015-063A","EPOCH":"2026-03-04T02:32:53.444832","MEAN_MOTION":1.00273666,"ECCENTRICITY":0.0007279,"INCLINATION":0.0193,"RA_OF_ASC_NODE":178.3883,"ARG_OF_PERICENTER":47.755,"MEAN_ANOMALY":77.3734,"EPHEMERIS_TYPE":0,"CLASSIFICATION_TYPE":"U","NORAD_CAT_ID":41021,"ELEMENT_SET_NO":999,"REV_AT_EPOCH":3792,"BSTAR":0,"MEAN_MOTION_DOT":-3.37e-6,"MEAN_MOTION_DDOT":0},{"OBJECT_NAME":"GSAT-15","OBJECT_ID":"2015-065A","EPOCH":"2026-03-04T00:47:18.567456","MEAN_MOTION":1.00268671,"ECCENTRICITY":8.14e-5,"INCLINATION":0.0905,"RA_OF_ASC_NODE":270.0434,"ARG_OF_PERICENTER":97.3378,"MEAN_ANOMALY":259.7031,"EPHEMERIS_TYPE":0,"CLASSIFICATION_TYPE":"U","NORAD_CAT_ID":41028,"ELEMENT_SET_NO":999,"REV_AT_EPOCH":3774,"BSTAR":0,"MEAN_MOTION_DOT":-2.7e-6,"MEAN_MOTION_DDOT":0},{"OBJECT_NAME":"BADR-7 (ARABSAT-6B)","OBJECT_ID":"2015-065B","EPOCH":"2026-03-04T01:39:38.681280","MEAN_MOTION":1.00271419,"ECCENTRICITY":0.000341,"INCLINATION":0.0256,"RA_OF_ASC_NODE":198.7201,"ARG_OF_PERICENTER":67.1359,"MEAN_ANOMALY":306.8459,"EPHEMERIS_TYPE":0,"CLASSIFICATION_TYPE":"U","NORAD_CAT_ID":41029,"ELEMENT_SET_NO":999,"REV_AT_EPOCH":3771,"BSTAR":0,"MEAN_MOTION_DOT":1.32e-6,"MEAN_MOTION_DDOT":0},{"OBJECT_NAME":"LAOSAT 1","OBJECT_ID":"2015-067A","EPOCH":"2026-03-04T00:57:17.609760","MEAN_MOTION":1.00273394,"ECCENTRICITY":0.0001985,"INCLINATION":0.0359,"RA_OF_ASC_NODE":298.5111,"ARG_OF_PERICENTER":7.0773,"MEAN_ANOMALY":359.0261,"EPHEMERIS_TYPE":0,"CLASSIFICATION_TYPE":"U","NORAD_CAT_ID":41034,"ELEMENT_SET_NO":999,"REV_AT_EPOCH":3780,"BSTAR":0,"MEAN_MOTION_DOT":-3.56e-6,"MEAN_MOTION_DDOT":0},{"OBJECT_NAME":"TELSTAR 12V","OBJECT_ID":"2015-068A","EPOCH":"2026-03-03T22:25:38.664192","MEAN_MOTION":1.00271484,"ECCENTRICITY":0.0002634,"INCLINATION":0.02,"RA_OF_ASC_NODE":104.8111,"ARG_OF_PERICENTER":243.8841,"MEAN_ANOMALY":134.3921,"EPHEMERIS_TYPE":0,"CLASSIFICATION_TYPE":"U","NORAD_CAT_ID":41036,"ELEMENT_SET_NO":999,"REV_AT_EPOCH":3757,"BSTAR":0,"MEAN_MOTION_DOT":-1.32e-6,"MEAN_MOTION_DDOT":0},{"OBJECT_NAME":"ELEKTRO-L 2","OBJECT_ID":"2015-074A","EPOCH":"2026-03-03T20:51:04.605984","MEAN_MOTION":1.00270829,"ECCENTRICITY":0.00034679,"INCLINATION":6.4296,"RA_OF_ASC_NODE":71.8188,"ARG_OF_PERICENTER":237.1165,"MEAN_ANOMALY":150.951,"EPHEMERIS_TYPE":0,"CLASSIFICATION_TYPE":"U","NORAD_CAT_ID":41105,"ELEMENT_SET_NO":999,"REV_AT_EPOCH":3745,"BSTAR":0,"MEAN_MOTION_DOT":-1.28e-6,"MEAN_MOTION_DDOT":0}]
