EUTELSAT 8 WEST B       
1 40875U 15039B   26063.15540102 -.00000078  00000+0  00000+0 0  9991
2 40875   0.0667 356.5476 0003806 347.0412 226.2577  1.00271641 38609
GSAT-6                  
1 40880U 15041A   26063.10201411 -.00000170  00000+0  00000+0 0  9995
2 40880   1.6468  83.9750 0002704 262.7723 294.2843  1.00266028 38548
INMARSAT 5-F3           
1 40882U 15042A   26062.47128285  .00000035  00000+0  00000+0 0  9993
2 40882   0.0203 127.3947 0001374 263.8816 119.2231  1.00269188 38512
TJS-1                   
1 40892U 15046A   26063.19072549 -.00000168  00000+0  00000+0 0  9997
2 40892   0.0530  85.5471 0004337 293.6908   6.3978  1.00271201 38511
EXPRESS-AM8             
1 40895U 15048A   26063.15418767 -.00000124  00000+0  00000+0 0  9996
2 40895   0.0307 258.4062 0000301 359.1654 305.8313  1.00270424 38297
COSMOS 1700 DEB         
1 40924U 85102G   26062.74220822 -.00000017  00000+0  00000+0 0  9995
2 40924   9.8673 319.4364 0021511 119.4303  55.7486  1.00215716 66375
SKY MUSTER 1 (NBN1A)    
1 40940U 15054A   26062.97073001  .00000000  00000+0  00000+0 0  9993
2 40940   0.0191 163.9226 0001847 178.5776 308.9310  1.00268073 38204
ARSAT 2                 
1 40941U 15054B   26063.18030810  .00000000  00000+0  00000+0 0  9999
2 40941   0.0212 120.7560 0001996 219.9011 165.1963  1.00268537 38255
MORELOS 3               
1 40946U 15056A   26063.13460090 -.00000053  00000+0  00000+0 0  9997
2 40946   3.1085  12.0896 0002974 359.2942  85.8464  1.00267407 38232
APSTAR-9                
1 40982U 15059A   26062.89983634 -.00000279  00000+0  00000+0 0  9996
2 40982   0.0101 341.1458 0002006 278.1185   8.3386  1.00271384 38064
TURKSAT 4B              
1 40984U 15060A   26063.09560074  .00000000  00000+0  00000+0 0  9993
2 40984   0.0227 157.9293 0002284 187.8371 260.4896  1.00269629 38040
ZHONGXING-2C            
1 41021U 15063A   26063.10617413 -.00000337  00000+0  00000+0 0  9995
2 41021   0.0193 178.3883 0007279  47.7550  77.3734  1.00273666 37927
GSAT-15                 
1 41028U 15065A   26063.03285379 -.00000270  00000+0  00000+0 0  9994
2 41028   0.0905 270.0434 0000814  97.3378 259.7031  1.00268671 37740
BADR-7 (ARABSAT-6B)     
1 41029U 15065B   26063.06919770  .00000132  00000+0  00000+0 0  9993
2 41029   0.0256 198.7201 0003410  67.1359 306.8459  1.00271419 37716
LAOSAT 1                
1 41034U 15067A   26063.03978715 -.00000356  00000+0  00000+0 0  9991
2 41034   0.0359 298.5111 0001985   7.0773 359.0261  1.00273394 37808
TELSTAR 12V             
1 41036U 15068A   26062.93447528 -.00000132  00000+0  00000+0 0  9997
2 41036   0.0200 104.8111 0002634 243.8841 134.3921  1.00271484 37571
ELEKTRO-L 2             
1 41105U 15074A   26062.86880331 -.00000128  00000+0  00000+0 0  9991
2 41105   6.4296  71.8188 0003467 237.1165 150.9510  1.00270829 37457
